NUSAT-49 (KLARA DAN VO*)
1 60500U 24149AJ  26068.79810190  .00012912  00000+0  43568-3 0  9991
2 60500  97.3807 150.7380 0001132 286.7761  73.3356 15.30828857 86935
STARLINK-32442          
1 61729U 24196Y   26068.47061333 -.00000159  00000+0  67647-5 0  9996
2 61729  53.1617 102.3112 0001350  90.8212 269.2943 15.30190304 77129
