[{"OBJECT_NAME":"NUSAT-49 (KLARA DAN VON NEUMANN)","OBJECT_ID":"2024-149AJ","EPOCH":"2026-03-09T19:09:16.004160","MEAN_MOTION":15.30828857,"ECCENTRICITY":0.00011321,"INCLINATION":97.3807,"RA_OF_ASC_NODE":150.738,"ARG_OF_PERICENTER":286.7761,"MEAN_ANOMALY":73.3356,"EPHEMERIS_TYPE":0,"CLASSIFICATION_TYPE":"U","NORAD_CAT_ID":60500,"ELEMENT_SET_NO":999,"REV_AT_EPOCH":8693,"BSTAR":0.00043568345,"MEAN_MOTION_DOT":0.00012912,"MEAN_MOTION_DDOT":0},{"OBJECT_NAME":"STARLINK-32442","OBJECT_ID":"2024-196Y","EPOCH":"2026-03-09T11:17:40.991712","MEAN_MOTION":15.30190304,"ECCENTRICITY":0.00013505,"INCLINATION":53.1617,"RA_OF_ASC_NODE":102.3112,"ARG_OF_PERICENTER":90.8212,"MEAN_ANOMALY":269.2943,"EPHEMERIS_TYPE":0,"CLASSIFICATION_TYPE":"U","NORAD_CAT_ID":61729,"ELEMENT_SET_NO":999,"REV_AT_EPOCH":7712,"BSTAR":6.764737e-6,"MEAN_MOTION_DOT":-1.59e-6,"MEAN_MOTION_DDOT":0}]
